OBJECT_NAME,OBJECT_ID,EPOCH,MEAN_MOTION,ECCENTRICITY,INCLINATION,RA_OF_ASC_NODE,ARG_OF_PERICENTER,MEAN_ANOMALY,EPHEMERIS_TYPE,CLASSIFICATION_TYPE,NORAD_CAT_ID,ELEMENT_SET_NO,REV_AT_EPOCH,BSTAR,MEAN_MOTION_DOT,MEAN_MOTION_DDOT
CHUANGXIN 1-02 (CX-1-02),2008-056B,2026-06-09T07:43:22.371744,14.30151991,.00145283,98.6140,186.6670,158.6938,201.4852,0,U,33434,999,91749,.8046952E-4,.165E-5,0
STARS (KUKAI),2009-002G,2026-06-09T02:59:00.301056,14.95691901,.00082139,98.1538,107.1039,185.3722,174.7411,0,U,33498,999,93727,.30470074E-3,.333E-4,0
KKS-1 (KISEKI),2009-002H,2026-06-09T07:05:34.744128,14.83103543,.00070037,98.1193,82.6129,325.5700,34.5058,0,U,33499,999,93502,.15994335E-3,.1247E-4,0
UK-DMC 2,2009-041C,2026-06-08T21:18:06.143904,14.76019080,.00012963,97.8828,295.0575,72.8745,287.2607,0,U,35683,999,90534,.16742289E-3,.1104E-4,0
OCEANSAT-2,2009-051A,2026-06-09T06:21:03.733920,13.99664272,.00146826,98.2324,147.9064,260.2803,99.6705,0,U,35931,999,87822,.80352302E-4,.8E-6,0
SWISSCUBE,2009-051B,2026-06-09T05:34:22.375488,14.62466323,.00055364,98.4042,67.9819,231.7827,128.2876,0,U,35932,999,88799,.18429864E-3,.884E-5,0
BEESAT-1,2009-051C,2026-06-09T07:20:34.906848,14.61707654,.00039107,98.3972,67.7088,248.2700,111.8085,0,U,35933,999,88803,.15740813E-3,.735E-5,0
ITUPSAT1,2009-051E,2026-06-09T06:57:31.866624,14.60428780,.00060783,98.4055,66.8927,263.4866,96.5642,0,U,35935,999,88758,.14856364E-3,.671E-5,0
DMSP 5D-3 F18 (USA 210),2009-057A,2026-06-09T06:59:53.409696,14.14892267,.00098661,98.9034,141.0780,274.7695,85.2351,0,U,35951,999,85847,.14677974E-3,.239E-5,0
PROBA-2,2009-059B,2026-06-09T06:18:00.200448,14.54858955,.00122144,98.2451,343.7253,309.0408,50.9701,0,U,36037,999,88037,.49492404E-4,.167E-5,0
YAOGAN-7,2009-069A,2026-06-09T05:39:18.485568,14.78001701,.00259352,98.0082,46.1515,66.2707,294.1220,0,U,36110,999,88845,.6876894E-4,.446E-5,0
XIWANG-1 (HOPE-1),2009-072B,2026-06-09T06:20:07.371744,13.16438341,.00068019,100.4025,114.2227,251.7914,108.2459,0,U,36122,999,79196,-.52090582E-3,-.243E-5,0
COSMOS 2463,2010-017A,2026-06-09T07:27:28.426752,13.71665237,.00369522,82.9608,255.4923,150.1314,264.6475,0,U,36519,999,80685,.28207235E-4,.41E-6,0
CARTOSAT-2B,2010-035A,2026-06-09T06:53:12.294240,14.78650533,.00105455,97.9954,210.8869,210.7445,149.3149,0,U,36795,999,85868,.58534409E-4,.377E-5,0
TISAT 1,2010-035E,2026-06-08T19:40:13.696608,15.31390446,.00001854,98.0700,105.6282,170.3248,189.7995,0,U,36799,999,86642,.66607275E-3,.20138E-3,0
YAOGAN-10,2010-038A,2026-06-09T08:00:20.079936,14.85324648,.000166,97.8983,183.8009,88.3539,327.1639,0,U,36834,999,85604,.14616782E-3,.1202E-4,0
SHIJIAN-6 04B (SJ-6 04B),2010-051B,2026-06-09T06:45:00.164160,14.99296413,.00091089,97.8686,165.6110,339.2190,20.8661,0,U,37180,999,85449,.82358733E-4,.944E-5,0
FENGYUN 3B,2010-059A,2026-06-09T07:30:57.155328,14.14840085,.00214606,98.9623,206.2942,206.6933,217.4674,0,U,37214,999,80631,.28527746E-4,.1E-6,0
COSMO-SKYMED 4,2010-060A,2026-06-08T09:32:08.023776,14.82162251,.00014135,97.8890,343.1246,83.8256,276.3118,0,U,37216,999,84326,.70656283E-4,.51E-5,0
O/OREOS (USA 219),2010-062C,2026-06-09T05:26:25.171872,14.93710062,.00123856,71.9704,98.3700,80.4823,279.7746,0,U,37224,999,11545,.20524832E-3,.2113E-4,0
RESOURCESAT-2,2011-015A,2026-06-09T06:38:12.547104,14.21604715,.00101308,98.7644,227.7727,281.0336,78.9702,0,U,37387,999,78505,.42583416E-4,.49E-6,0
YOUTHSAT,2011-015B,2026-06-09T05:12:00.078912,14.25627010,.0014725,98.3678,134.6303,10.5771,5.2837,0,U,37388,999,78650,.91548678E-4,.176E-5,0
APRIZESAT 6,2011-044F,2026-06-09T07:09:11.621952,14.76904112,.00443807,98.2371,70.6364,110.5168,4.9826,0,U,37793,999,79598,.9851808E-4,.648E-5,0
JUGNU,2011-058B,2026-06-09T06:27:07.528032,14.13774628,.00185497,19.9621,356.5333,349.0526,166.6651,0,U,37839,999,75790,.722974E-4,.405E-5,0
SRMSAT,2011-058D,2026-06-09T05:50:10.041792,14.11573893,.00119399,19.9710,107.5505,116.6749,358.0957,0,U,37841,999,75669,.52709345E-4,.362E-5,0
